[{"OBJECT_NAME":"SCS-01 M","OBJECT_ID":"2025-100M","EPOCH":"2026-03-09T23:50:15.541152","MEAN_MOTION":15.31880861,"ECCENTRICITY":0.00078021,"INCLINATION":97.3725,"RA_OF_ASC_NODE":145.6908,"ARG_OF_PERICENTER":292.3826,"MEAN_ANOMALY":67.6588,"EPHEMERIS_TYPE":0,"CLASSIFICATION_TYPE":"U","NORAD_CAT_ID":63993,"ELEMENT_SET_NO":999,"REV_AT_EPOCH":4565,"BSTAR":0.0012010051,"MEAN_MOTION_DOT":0.00037061,"MEAN_MOTION_DDOT":0},{"OBJECT_NAME":"STARLINK-35948","OBJECT_ID":"2025-271S","EPOCH":"2026-03-09T11:17:06.192384","MEAN_MOTION":15.30210809,"ECCENTRICITY":0.00012214,"INCLINATION":53.1581,"RA_OF_ASC_NODE":140.915,"ARG_OF_PERICENTER":80.2539,"MEAN_ANOMALY":279.8599,"EPHEMERIS_TYPE":0,"CLASSIFICATION_TYPE":"U","NORAD_CAT_ID":66633,"ELEMENT_SET_NO":999,"REV_AT_EPOCH":1753,"BSTAR":0.00094805321,"MEAN_MOTION_DOT":0.00027834,"MEAN_MOTION_DDOT":0}]
